OBJECT_NAME,OBJECT_ID,EPOCH,MEAN_MOTION,ECCENTRICITY,INCLINATION,RA_OF_ASC_NODE,ARG_OF_PERICENTER,MEAN_ANOMALY,EPHEMERIS_TYPE,CLASSIFICATION_TYPE,NORAD_CAT_ID,ELEMENT_SET_NO,REV_AT_EPOCH,BSTAR,MEAN_MOTION_DOT,MEAN_MOTION_DDOT
YAOGAN-39 03B,2023-152C,2026-06-30T13:32:14.779680,15.16373227,.0026823,34.9882,212.8443,343.2628,16.7197,0,U,57988,999,15222,.17675E-3,.3509E-4,0
YAOGAN-39 03C,2023-152E,2026-06-30T13:26:35.782368,15.16352453,.001832,34.9884,212.7869,257.4960,102.3703,0,U,57990,999,15219,.17379E-3,.3431E-4,0
STARLINK-30537,2023-153A,2026-06-29T22:24:43.235136,15.27579182,.00013468,43.0015,153.0798,270.6402,89.4295,0,U,57991,999,15196,.7742657E-4,.1869E-4,0
STARLINK-30534,2023-153B,2026-06-29T23:38:31.483968,15.27577642,.00016992,43.0038,152.6038,282.5117,77.5545,0,U,57992,999,15197,.4175063E-4,.887E-5,0
STARLINK-30536,2023-153C,2026-06-30T00:04:24.253536,15.27591176,.00016591,42.9977,152.7353,277.5355,82.5308,0,U,57993,999,15207,.89989756E-4,.2216E-4,0
STARLINK-30538,2023-153D,2026-06-30T09:40:30.424224,15.27561614,.00009619,43.0004,150.5732,274.8898,85.1844,0,U,57994,999,15203,-.10927231E-3,-.3266E-4,0
STARLINK-30517,2023-153E,2026-06-29T15:10:56.918208,15.27576723,.00012726,42.9981,155.1092,271.5139,88.5567,0,U,57995,999,15201,.9395966E-5,-.3E-7,0
STARLINK-30523,2023-153G,2026-06-29T22:35:49.375680,15.27576373,.00007916,43.0030,153.1356,253.4577,106.6188,0,U,57997,999,15206,-.9161464E-5,-.514E-5,0
STARLINK-30531,2023-153H,2026-06-30T09:20:07.344096,15.27579476,.00011768,43.0007,150.4729,257.7551,102.3169,0,U,57998,999,15213,.16167237E-4,.183E-5,0
STARLINK-30552,2023-153J,2026-06-30T08:43:19.474176,15.27579595,.00009938,43.0030,151.1409,303.4977,56.5779,0,U,57999,999,15212,.39182182E-4,.816E-5,0
STARLINK-30545,2023-153K,2026-06-30T08:48:40.165920,15.27585731,.00004985,43.0030,150.3133,299.8183,60.2619,0,U,58000,999,15213,-.16082276E-4,-.704E-5,0
STARLINK-30535,2023-153L,2026-06-30T08:54:13.041792,15.27580814,.00015785,43.0046,150.3387,270.8698,89.1972,0,U,58001,999,15213,.10521555E-4,.27E-6,0
STARLINK-30540,2023-153M,2026-06-30T09:08:58.830144,15.27615871,.00023483,43.0019,150.3982,270.3549,89.7033,0,U,58002,999,15203,-.87791607E-4,-.268E-4,0
STARLINK-30539,2023-153P,2026-06-30T09:05:18.974976,15.27580515,.00016679,43.0041,150.3963,266.3934,93.6727,0,U,58004,999,15212,.18414176E-4,.244E-5,0
STARLINK-30530,2023-153Q,2026-06-30T09:16:24.908160,15.27582912,.00014983,43.0022,150.4468,275.2189,84.8491,0,U,58005,999,15213,.25959639E-4,.452E-5,0
STARLINK-30526,2023-153R,2026-06-29T23:15:57.012768,15.31161482,.00046231,43.0001,126.4485,172.9538,187.1380,0,U,58006,999,15237,-.40299513E-3,-.12642E-3,0
STARLINK-30527,2023-153S,2026-06-30T16:53:06.360576,15.27559208,.0001055,43.0030,280.1380,277.3238,82.7494,0,U,58007,999,15474,-.86707E-4,-.2646E-4,0
STARLINK-30522,2023-153T,2026-06-29T23:07:16.336128,15.27571057,.00011852,43.0028,153.2824,269.1191,90.9525,0,U,58008,999,15206,.44177624E-4,.953E-5,0
STARLINK-30486,2023-153U,2026-06-30T09:10:51.919104,15.27582368,.00016758,43.0030,150.4148,274.4461,85.6199,0,U,58009,999,15203,.25573367E-4,.442E-5,0
STARLINK-30520,2023-153V,2026-06-30T09:25:38.757216,15.27592250,.00015882,43.0019,150.4791,272.0294,88.0376,0,U,58010,999,15203,.74765124E-4,.1796E-4,0
STARLINK-30497,2023-153W,2026-06-30T08:57:54.777024,15.27573835,.00019881,43.0055,150.3452,263.0739,96.9886,0,U,58011,999,15213,.83957335E-4,.2048E-4,0
STARLINK-30525,2023-153X,2026-06-30T09:14:31.435584,15.27600460,.00008856,43.0015,150.4239,260.6975,99.3776,0,U,58012,999,15213,.15566134E-3,.4026E-4,0
THEOS-2 (T2V),2023-155A,2026-06-30T19:42:37.008288,14.81761371,.0001381,97.8873,252.5997,93.8395,266.2976,0,U,58016,999,14744,.11287E-3,.838E-5,0
FORMOSAT-7R (TRITON),2023-155B,2026-06-30T15:50:39.883776,14.91156849,.0002282,97.8356,262.9595,70.3883,289.7581,0,U,58017,999,14823,.16396E-3,.1571E-4,0
ANSER FOLLOWER 2,2023-155C,2026-06-30T16:37:47.777376,15.48044632,.0001683,97.5546,271.4023,169.6909,190.4375,0,U,58018,999,15104,.47875E-3,.25008E-3,0
ANSER FOLLOWER 1,2023-155D,2026-06-30T19:35:08.529216,15.48748079,.0000789,97.5524,272.1741,191.0866,169.0367,0,U,58019,999,15106,.12999E-2,.70152E-3,0
NESS,2023-155E,2026-06-30T11:25:18.592896,15.30582483,.00069715,97.5917,267.5593,146.4607,213.7076,0,U,58020,999,15052,.51222109E-3,.15089E-3,0
CSC-2,2023-155F,2026-06-30T19:26:25.334880,15.22047454,.000531,97.5429,258.5127,172.7489,187.3824,0,U,58021,999,15025,.49073E-3,.11161E-3,0
CSC-1,2023-155G,2026-06-30T03:54:21.709728,15.10802061,.00079595,97.5363,250.4434,184.6217,175.4940,0,U,58022,999,14969,.19187107E-3,.3125E-4,0
PRETTY,2023-155H,2026-06-30T20:12:49.566240,15.24037118,.0001674,97.5695,263.5656,40.9120,319.2242,0,U,58023,999,15043,.25345E-3,.6072E-4,0
