YAOGAN-39 03B           
1 57988U 23152C   26181.56405995  .00003509  00000+0  17675-3 0  9996
2 57988  34.9882 212.8443 0026823 343.2628  16.7197 15.16373227152226
YAOGAN-39 03C           
1 57990U 23152E   26181.56013637  .00003431  00000+0  17379-3 0  9992
2 57990  34.9884 212.7869 0018320 257.4960 102.3703 15.16352453152199
STARLINK-30537          
1 57991U 23153A   26180.93383374  .00001869  00000+0  77427-4 0  9996
2 57991  43.0015 153.0798 0001346 270.6402  89.4295 15.27579182151960
STARLINK-30534          
1 57992U 23153B   26180.98508662  .00000887  00000+0  41751-4 0  9991
2 57992  43.0038 152.6038 0001699 282.5117  77.5545 15.27577642151970
STARLINK-30536          
1 57993U 23153C   26181.00305849  .00002216  00000+0  89990-4 0  9993
2 57993  42.9977 152.7353 0001659 277.5355  82.5308 15.27591176152079
STARLINK-30538          
1 57994U 23153D   26181.40312991 -.00003266  00000+0 -10927-3 0  9995
2 57994  43.0004 150.5732 0000961 274.8898  85.1844 15.27561614152031
STARLINK-30517          
1 57995U 23153E   26180.63260322 -.00000003  00000+0  93960-5 0  9995
2 57995  42.9981 155.1092 0001272 271.5139  88.5567 15.27576723152016
STARLINK-30523          
1 57997U 23153G   26180.94154370 -.00000514  00000+0 -91615-5 0  9999
2 57997  43.0030 153.1356 0000791 253.4577 106.6188 15.27576373152063
STARLINK-30531          
1 57998U 23153H   26181.38897389  .00000183  00000+0  16167-4 0  9991
2 57998  43.0007 150.4729 0001176 257.7551 102.3169 15.27579476152136
STARLINK-30552          
1 57999U 23153J   26181.36341984  .00000816  00000+0  39182-4 0  9990
2 57999  43.0030 151.1409 0000993 303.4977  56.5779 15.27579595152121
STARLINK-30545          
1 58000U 23153K   26181.36713155 -.00000704  00000+0 -16082-4 0  9999
2 58000  43.0030 150.3133 0000498 299.8183  60.2619 15.27585731152132
STARLINK-30535          
1 58001U 23153L   26181.37098428  .00000027  00000+0  10522-4 0  9999
2 58001  43.0046 150.3387 0001578 270.8698  89.1972 15.27580814152130
STARLINK-30540          
1 58002U 23153M   26181.38123646 -.00002680  00000+0 -87792-4 0  9994
2 58002  43.0019 150.3982 0002348 270.3549  89.7033 15.27615871152033
STARLINK-30539          
1 58004U 23153P   26181.37869184  .00000244  00000+0  18414-4 0  9996
2 58004  43.0041 150.3963 0001667 266.3934  93.6727 15.27580515152125
STARLINK-30530          
1 58005U 23153Q   26181.38639940  .00000452  00000+0  25960-4 0  9998
2 58005  43.0022 150.4468 0001498 275.2189  84.8491 15.27582912152133
STARLINK-30526          
1 58006U 23153R   26180.96940987 -.00012642  00000+0 -40300-3 0  9998
2 58006  43.0001 126.4485 0004623 172.9538 187.1380 15.31161482152377
STARLINK-30527          
1 58007U 23153S   26181.70354584 -.00002646  00000+0 -86707-4 0  9999
2 58007  43.0030 280.1380 0001055 277.3238  82.7494 15.27559208154746
STARLINK-30522          
1 58008U 23153T   26180.96338352  .00000953  00000+0  44178-4 0  9995
2 58008  43.0028 153.2824 0001185 269.1191  90.9525 15.27571057152063
STARLINK-30486          
1 58009U 23153U   26181.38254536  .00000442  00000+0  25573-4 0  9995
2 58009  43.0030 150.4148 0001675 274.4461  85.6199 15.27582368152030
STARLINK-30520          
1 58010U 23153V   26181.39280969  .00001796  00000+0  74765-4 0  9997
2 58010  43.0019 150.4791 0001588 272.0294  88.0376 15.27592250152039
STARLINK-30497          
1 58011U 23153W   26181.37355066  .00002048  00000+0  83957-4 0  9991
2 58011  43.0055 150.3452 0001988 263.0739  96.9886 15.27573835152134
STARLINK-30525          
1 58012U 23153X   26181.38508606  .00004026  00000+0  15566-3 0  9991
2 58012  43.0015 150.4239 0000885 260.6975  99.3776 15.27600460152135
THEOS-2 (T2V)           
1 58016U 23155A   26181.82126167  .00000838  00000+0  11287-3 0  9997
2 58016  97.8873 252.5997 0001381  93.8395 266.2976 14.81761371147440
FORMOSAT-7R (TRITON)    
1 58017U 23155B   26181.66018384  .00001571  00000+0  16396-3 0  9992
2 58017  97.8356 262.9595 0002282  70.3883 289.7581 14.91156849148238
ANSER FOLLOWER 2        
1 58018U 23155C   26181.69291409  .00025008  00000+0  47875-3 0  9994
2 58018  97.5546 271.4023 0001683 169.6909 190.4375 15.48044632151044
ANSER FOLLOWER 1        
1 58019U 23155D   26181.81607094  .00070152  00000+0  12999-2 0  9998
2 58019  97.5524 272.1741 0000789 191.0866 169.0367 15.48748079151064
NESS                    
1 58020U 23155E   26181.47590964  .00015089  00000+0  51222-3 0  9990
2 58020  97.5917 267.5593 0006971 146.4607 213.7076 15.30582483150521
CSC-2                   
1 58021U 23155F   26181.81001545  .00011161  00000+0  49073-3 0  9999
2 58021  97.5429 258.5127 0005310 172.7489 187.3824 15.22047454150251
CSC-1                   
1 58022U 23155G   26181.16275127  .00003125  00000+0  19187-3 0  9991
2 58022  97.5363 250.4434 0007959 184.6217 175.4940 15.10802061149696
PRETTY                  
1 58023U 23155H   26181.84224035  .00006072  00000+0  25345-3 0  9996
2 58023  97.5695 263.5656 0001674  40.9120 319.2242 15.24037118150436
